{
  "norad_id": 55765,
  "name": "STARLINK-5595",
  "history": [
    {
      "epoch": "2026-03-28T16:18:06.723072",
      "apogee_km": 574.3775537864276,
      "perigee_km": 569.7112020093073,
      "latitude_deg": -44.51140085709569,
      "longitude_deg": -178.29252991988324,
      "semi_major_axis_km": 6950.181377897868,
      "eccentricity": 0.0003357,
      "inclination_deg": 70.0007,
      "raan_deg": 176.7366,
      "arg_perigee_deg": 270.3787,
      "mean_anomaly_deg": 89.6987,
      "mean_motion_rev_day": 14.98333723
    }
  ]
}