{"fetched_at":"2026-03-30T13:17:50Z","count":15418,"tles":[{"name":"STARLINK-5595","line1":"1 55765U 23028AA  26087.67924448 -.00000075  00000+0  14891-5 0  9990","line2":"2 55765  70.0007 176.7366 0003357 270.3787  89.6987 14.98333723169378","category":"Starlink"}]}